CCSDS_OMM_VERS = 2.0
CREATION_DATE  = 
ORIGINATOR     = 

OBJECT_NAME    = COSMOS 2242
OBJECT_ID      = 1993-024A
CENTER_NAME    = EARTH
REF_FRAME      = TEME
TIME_SYSTEM    = UTC
MEAN_ELEMENT_THEORY = SGP/SGP4

EPOCH          = 2026-03-30T11:54:41.704128
MEAN_MOTION    = 14.96639464
ECCENTRICITY   = .0015178
INCLINATION    = 82.5166
RA_OF_ASC_NODE = 246.8090
ARG_OF_PERICENTER = 232.3282
MEAN_ANOMALY   = 127.6564

EPHEMERIS_TYPE = 0
CLASSIFICATION_TYPE = U
NORAD_CAT_ID   = 22626
ELEMENT_SET_NO = 999
REV_AT_EPOCH   = 78350
BSTAR          = .27251E-3
MEAN_MOTION_DOT = .3138E-4
MEAN_MOTION_DDOT = 0

CCSDS_OMM_VERS = 2.0
CREATION_DATE  = 
ORIGINATOR     = 

OBJECT_NAME    = SL-16 R/B
OBJECT_ID      = 1993-059B
CENTER_NAME    = EARTH
REF_FRAME      = TEME
TIME_SYSTEM    = UTC
MEAN_ELEMENT_THEORY = SGP/SGP4

EPOCH          = 2026-03-30T08:51:15.152832
MEAN_MOTION    = 14.17234658
ECCENTRICITY   = .0017327
INCLINATION    = 70.9916
RA_OF_ASC_NODE = 327.5211
ARG_OF_PERICENTER = 186.4078
MEAN_ANOMALY   = 173.6827

EPHEMERIS_TYPE = 0
CLASSIFICATION_TYPE = U
NORAD_CAT_ID   = 22803
ELEMENT_SET_NO = 999
REV_AT_EPOCH   = 68246
BSTAR          = -.63016E-4
MEAN_MOTION_DOT = -.175E-5
MEAN_MOTION_DDOT = 0

CCSDS_OMM_VERS = 2.0
CREATION_DATE  = 
ORIGINATOR     = 

OBJECT_NAME    = ARIANE 40 R/B
OBJECT_ID      = 1993-061H
CENTER_NAME    = EARTH
REF_FRAME      = TEME
TIME_SYSTEM    = UTC
MEAN_ELEMENT_THEORY = SGP/SGP4

EPOCH          = 2026-03-30T10:30:57.602880
MEAN_MOTION    = 14.32872007
ECCENTRICITY   = .0010088
INCLINATION    = 98.4878
RA_OF_ASC_NODE = 157.9125
ARG_OF_PERICENTER = 217.3472
MEAN_ANOMALY   = 142.7011

EPHEMERIS_TYPE = 0
CLASSIFICATION_TYPE = U
NORAD_CAT_ID   = 22830
ELEMENT_SET_NO = 999
REV_AT_EPOCH   = 69707
BSTAR          = .10847E-3
MEAN_MOTION_DOT = .253E-5
MEAN_MOTION_DDOT = 0

CCSDS_OMM_VERS = 2.0
CREATION_DATE  = 
ORIGINATOR     = 

OBJECT_NAME    = COSMOS 2278
OBJECT_ID      = 1994-023A
CENTER_NAME    = EARTH
REF_FRAME      = TEME
TIME_SYSTEM    = UTC
MEAN_ELEMENT_THEORY = SGP/SGP4

EPOCH          = 2026-03-30T12:45:56.750976
MEAN_MOTION    = 14.14375115
ECCENTRICITY   = .0009208
INCLINATION    = 71.0513
RA_OF_ASC_NODE = 131.4947
ARG_OF_PERICENTER = 341.4616
MEAN_ANOMALY   = 18.6170

EPHEMERIS_TYPE = 0
CLASSIFICATION_TYPE = U
NORAD_CAT_ID   = 23087
ELEMENT_SET_NO = 999
REV_AT_EPOCH   = 64775
BSTAR          = -.51975E-4
MEAN_MOTION_DOT = -.147E-5
MEAN_MOTION_DDOT = 0

CCSDS_OMM_VERS = 2.0
CREATION_DATE  = 
ORIGINATOR     = 

OBJECT_NAME    = SL-16 R/B
OBJECT_ID      = 1994-023B
CENTER_NAME    = EARTH
REF_FRAME      = TEME
TIME_SYSTEM    = UTC
MEAN_ELEMENT_THEORY = SGP/SGP4

EPOCH          = 2026-03-30T06:52:11.824608
MEAN_MOTION    = 14.15016519
ECCENTRICITY   = .0005488
INCLINATION    = 71.0022
RA_OF_ASC_NODE = 27.6304
ARG_OF_PERICENTER = 266.7471
MEAN_ANOMALY   = 93.3023

EPHEMERIS_TYPE = 0
CLASSIFICATION_TYPE = U
NORAD_CAT_ID   = 23088
ELEMENT_SET_NO = 999
REV_AT_EPOCH   = 64900
BSTAR          = .19662E-3
MEAN_MOTION_DOT = .333E-5
MEAN_MOTION_DDOT = 0

CCSDS_OMM_VERS = 2.0
CREATION_DATE  = 
ORIGINATOR     = 

OBJECT_NAME    = SL-16 R/B
OBJECT_ID      = 1994-074B
CENTER_NAME    = EARTH
REF_FRAME      = TEME
TIME_SYSTEM    = UTC
MEAN_ELEMENT_THEORY = SGP/SGP4

EPOCH          = 2026-03-30T13:49:46.788672
MEAN_MOTION    = 14.79431930
ECCENTRICITY   = .000741
INCLINATION    = 97.7078
RA_OF_ASC_NODE = 119.5455
ARG_OF_PERICENTER = 143.3316
MEAN_ANOMALY   = 17.5918

EPHEMERIS_TYPE = 0
CLASSIFICATION_TYPE = U
NORAD_CAT_ID   = 23343
ELEMENT_SET_NO = 999
REV_AT_EPOCH   = 69033
BSTAR          = .90329E-4
MEAN_MOTION_DOT = .625E-5
MEAN_MOTION_DDOT = 0

CCSDS_OMM_VERS = 2.0
CREATION_DATE  = 
ORIGINATOR     = 

OBJECT_NAME    = SL-16 R/B
OBJECT_ID      = 1994-077B
CENTER_NAME    = EARTH
REF_FRAME      = TEME
TIME_SYSTEM    = UTC
MEAN_ELEMENT_THEORY = SGP/SGP4

EPOCH          = 2026-03-30T07:55:52.766112
MEAN_MOTION    = 14.15569174
ECCENTRICITY   = .0001855
INCLINATION    = 70.9832
RA_OF_ASC_NODE = 309.0666
ARG_OF_PERICENTER = 196.2009
MEAN_ANOMALY   = 163.9055

EPHEMERIS_TYPE = 0
CLASSIFICATION_TYPE = U
NORAD_CAT_ID   = 23405
ELEMENT_SET_NO = 999
REV_AT_EPOCH   = 61915
BSTAR          = -.25448E-4
MEAN_MOTION_DOT = -.98E-6
MEAN_MOTION_DDOT = 0

CCSDS_OMM_VERS = 2.0
CREATION_DATE  = 
ORIGINATOR     = 

OBJECT_NAME    = ARIANE 40+ R/B
OBJECT_ID      = 1995-021B
CENTER_NAME    = EARTH
REF_FRAME      = TEME
TIME_SYSTEM    = UTC
MEAN_ELEMENT_THEORY = SGP/SGP4

EPOCH          = 2026-03-30T10:43:56.686368
MEAN_MOTION    = 14.39787352
ECCENTRICITY   = .00079
INCLINATION    = 98.4460
RA_OF_ASC_NODE = 160.6448
ARG_OF_PERICENTER = 83.0737
MEAN_ANOMALY   = 287.7044

EPHEMERIS_TYPE = 0
CLASSIFICATION_TYPE = U
NORAD_CAT_ID   = 23561
ELEMENT_SET_NO = 999
REV_AT_EPOCH   = 62223
BSTAR          = .12737E-3
MEAN_MOTION_DOT = .356E-5
MEAN_MOTION_DDOT = 0

CCSDS_OMM_VERS = 2.0
CREATION_DATE  = 
ORIGINATOR     = 

OBJECT_NAME    = SL-16 R/B
OBJECT_ID      = 1995-058B
CENTER_NAME    = EARTH
REF_FRAME      = TEME
TIME_SYSTEM    = UTC
MEAN_ELEMENT_THEORY = SGP/SGP4

EPOCH          = 2026-03-30T11:30:54.547200
MEAN_MOTION    = 14.15498604
ECCENTRICITY   = .0010154
INCLINATION    = 71.0199
RA_OF_ASC_NODE = 136.6095
ARG_OF_PERICENTER = 87.4015
MEAN_ANOMALY   = 272.8271

EPHEMERIS_TYPE = 0
CLASSIFICATION_TYPE = U
NORAD_CAT_ID   = 23705
ELEMENT_SET_NO = 999
REV_AT_EPOCH   = 57079
BSTAR          = -.87091E-4
MEAN_MOTION_DOT = -.218E-5
MEAN_MOTION_DDOT = 0

CCSDS_OMM_VERS = 2.0
CREATION_DATE  = 
ORIGINATOR     = 

OBJECT_NAME    = SL-16 R/B
OBJECT_ID      = 1996-051B
CENTER_NAME    = EARTH
REF_FRAME      = TEME
TIME_SYSTEM    = UTC
MEAN_ELEMENT_THEORY = SGP/SGP4

EPOCH          = 2026-03-30T11:47:58.492608
MEAN_MOTION    = 14.12421682
ECCENTRICITY   = .0013391
INCLINATION    = 70.7584
RA_OF_ASC_NODE = 131.2110
ARG_OF_PERICENTER = 114.3063
MEAN_ANOMALY   = 245.9456

EPHEMERIS_TYPE = 0
CLASSIFICATION_TYPE = U
NORAD_CAT_ID   = 24298
ELEMENT_SET_NO = 999
REV_AT_EPOCH   = 52458
BSTAR          = .99535E-4
MEAN_MOTION_DOT = .135E-5
MEAN_MOTION_DDOT = 0

CCSDS_OMM_VERS = 2.0
CREATION_DATE  = 
ORIGINATOR     = 

OBJECT_NAME    = ORBVIEW 2 (SEASTAR)
OBJECT_ID      = 1997-037A
CENTER_NAME    = EARTH
REF_FRAME      = TEME
TIME_SYSTEM    = UTC
MEAN_ELEMENT_THEORY = SGP/SGP4

EPOCH          = 2026-03-30T11:13:38.159328
MEAN_MOTION    = 14.35509582
ECCENTRICITY   = .0002319
INCLINATION    = 98.8603
RA_OF_ASC_NODE = 254.3341
ARG_OF_PERICENTER = 25.9059
MEAN_ANOMALY   = 334.2241

EPHEMERIS_TYPE = 0
CLASSIFICATION_TYPE = U
NORAD_CAT_ID   = 24883
ELEMENT_SET_NO = 999
REV_AT_EPOCH   = 51145
BSTAR          = .14184E-3
MEAN_MOTION_DOT = .361E-5
MEAN_MOTION_DDOT = 0

CCSDS_OMM_VERS = 2.0
CREATION_DATE  = 
ORIGINATOR     = 

OBJECT_NAME    = SL-16 R/B
OBJECT_ID      = 1998-043G
CENTER_NAME    = EARTH
REF_FRAME      = TEME
TIME_SYSTEM    = UTC
MEAN_ELEMENT_THEORY = SGP/SGP4

EPOCH          = 2026-03-30T11:59:52.164384
MEAN_MOTION    = 14.26054702
ECCENTRICITY   = .0009144
INCLINATION    = 98.8289
RA_OF_ASC_NODE = 43.0154
ARG_OF_PERICENTER = 319.2841
MEAN_ANOMALY   = 40.7654

EPHEMERIS_TYPE = 0
CLASSIFICATION_TYPE = U
NORAD_CAT_ID   = 25400
ELEMENT_SET_NO = 999
REV_AT_EPOCH   = 44195
BSTAR          = .57703E-4
MEAN_MOTION_DOT = .92E-6
MEAN_MOTION_DDOT = 0

